OOV-CUBE (TUBSAT-30)    
1 60240U 24128F   26063.43761512  .00005371  00000+0  40817-3 0  9993
2 60240  61.9938 230.6838 0054961 111.3065 249.3906 15.02202769 90378
ROBUSTA-3A (MEDITERRAN*)
1 60243U 24128J   26063.49938123  .00015664  00000+0  94138-3 0  9997
2 60243  61.9858 217.9926 0052289 107.4533 253.2287 15.09936684 90604
LASARSAT                
1 62391U 24247Q   26063.17155154  .00042032  00000+0  10424-2 0  9999
2 62391  44.9765 129.4627 0002871 350.2653   9.8178 15.39752390 67090
CROCUBE                 
1 62394U 24247T   26063.20534325  .00044929  00000+0  10733-2 0  9997
2 62394  44.9726 127.9459 0003019 338.1177  21.9582 15.40856803 67110
